[{"OBJECT_NAME":"STARLINK-35239","OBJECT_ID":"2025-210B","EPOCH":"2026-03-09T22:36:35.624736","MEAN_MOTION":15.30193892,"ECCENTRICITY":0.00010487,"INCLINATION":53.1574,"RA_OF_ASC_NODE":305.632,"ARG_OF_PERICENTER":78.665,"MEAN_ANOMALY":281.4469,"EPHEMERIS_TYPE":0,"CLASSIFICATION_TYPE":"U","NORAD_CAT_ID":65623,"ELEMENT_SET_NO":999,"REV_AT_EPOCH":2777,"BSTAR":0.00080691322,"MEAN_MOTION_DOT":0.00023611,"MEAN_MOTION_DDOT":0},{"OBJECT_NAME":"CZ-6A DEB","OBJECT_ID":"2022-151QB","EPOCH":"2026-03-08T18:03:47.471328","MEAN_MOTION":15.32168285,"ECCENTRICITY":0.00205863,"INCLINATION":98.6246,"RA_OF_ASC_NODE":151.4486,"ARG_OF_PERICENTER":181.9757,"MEAN_ANOMALY":178.1404,"EPHEMERIS_TYPE":0,"CLASSIFICATION_TYPE":"U","NORAD_CAT_ID":54890,"ELEMENT_SET_NO":999,"REV_AT_EPOCH":17659,"BSTAR":0.012866954,"MEAN_MOTION_DOT":0.00424465,"MEAN_MOTION_DDOT":0}]
